{
  "type": "FeatureCollection",
  "features": [
    {
      "type": "Feature",
      "properties": {
        "norad_id": 35771,
        "name": "COSMOS 2251 DEB",
        "group": "cosmos-2251-debris",
        "lat": 66.20804565708032,
        "lon": 71.8226013575917,
        "alt_km": 919.243894233281,
        "timestamp": "2025-12-23T05:02:12.426422+00:00",
        "meta_object_name": "COSMOS 2251 DEB",
        "meta_object_id": "1993-036ARR",
        "meta_epoch": "2025-12-15T14:45:16.238592",
        "meta_mean_motion": 14.13430046,
        "meta_eccentricity": 0.02280549,
        "meta_inclination": 74.1561,
        "meta_ra_of_asc_node": 305.27,
        "meta_arg_of_pericenter": 242.9998,
        "meta_mean_anomaly": 114.7698,
        "meta_ephemeris_type": 0,
        "meta_classification_type": "U",
        "meta_norad_cat_id": 35771,
        "meta_element_set_no": 999,
        "meta_rev_at_epoch": 82901,
        "meta_bstar": 0.0026764238,
        "meta_mean_motion_dot": 6.427e-05,
        "meta_mean_motion_ddot": 0,
        "tle_line1": "1 35771U 93036ARR 25349.61477128  .00006427  00000+0  26764-2 0  9998",
        "tle_line2": "2 35771  74.1561 305.2700 0228054 242.9998 114.7698 14.13430046829012"
      },
      "geometry": {
        "type": "Point",
        "coordinates": [
          71.8226013575917,
          66.20804565708032
        ]
      }
    },
    {
      "type": "Feature",
      "properties": {
        "norad_id": 35773,
        "name": "COSMOS 2251 DEB",
        "group": "cosmos-2251-debris",
        "lat": 14.431611730905507,
        "lon": -35.02945900463104,
        "alt_km": 693.7408139652134,
        "timestamp": "2025-12-23T05:02:12.426431+00:00",
        "meta_object_name": "COSMOS 2251 DEB",
        "meta_object_id": "1993-036ART",
        "meta_epoch": "2025-12-22T07:37:13.394496",
        "meta_mean_motion": 14.62118587,
        "meta_eccentricity": 0.00452277,
        "meta_inclination": 74.0085,
        "meta_ra_of_asc_node": 322.449,
        "meta_arg_of_pericenter": 119.6658,
        "meta_mean_anomaly": 240.9023,
        "meta_ephemeris_type": 0,
        "meta_classification_type": "U",
        "meta_norad_cat_id": 35773,
        "meta_element_set_no": 999,
        "meta_rev_at_epoch": 86979,
        "meta_bstar": 0.00058289058,
        "meta_mean_motion_dot": 2.944e-05,
        "meta_mean_motion_ddot": 0,
        "tle_line1": "1 35773U 93036ART 25356.31751614  .00002944  00000+0  58289-3 0  9998",
        "tle_line2": "2 35773  74.0085 322.4490 0045227 119.6658 240.9023 14.62118587869793"
      },
      "geometry": {
        "type": "Point",
        "coordinates": [
          -35.02945900463104,
          14.431611730905507
        ]
      }
    },
    {
      "type": "Feature",
      "properties": {
        "norad_id": 35777,
        "name": "COSMOS 2251 DEB",
        "group": "cosmos-2251-debris",
        "lat": -43.06495414425991,
        "lon": -69.7849781307287,
        "alt_km": 1243.1710177996401,
        "timestamp": "2025-12-23T05:02:12.426442+00:00",
        "meta_object_name": "COSMOS 2251 DEB",
        "meta_object_id": "1993-036ARX",
        "meta_epoch": "2025-12-22T04:19:16.095360",
        "meta_mean_motion": 13.41306748,
        "meta_eccentricity": 0.04518391,
        "meta_inclination": 73.7706,
        "meta_ra_of_asc_node": 307.656,
        "meta_arg_of_pericenter": 201.1078,
        "meta_mean_anomaly": 178.0054,
        "meta_ephemeris_type": 0,
        "meta_classification_type": "U",
        "meta_norad_cat_id": 35777,
        "meta_element_set_no": 999,
        "meta_rev_at_epoch": 79811,
        "meta_bstar": 0.00017716919,
        "meta_mean_motion_dot": 1.57e-06,
        "meta_mean_motion_ddot": 0,
        "tle_line1": "1 35777U 93036ARX 25356.18004740  .00000157  00000+0  17717-3 0  9993",
        "tle_line2": "2 35777  73.7706 307.6560 0451839 201.1078 178.0054 13.41306748798115"
      },
      "geometry": {
        "type": "Point",
        "coordinates": [
          -69.7849781307287,
          -43.06495414425991
        ]
      }
    },
    {
      "type": "Feature",
      "properties": {
        "norad_id": 35784,
        "name": "COSMOS 2251 DEB",
        "group": "cosmos-2251-debris",
        "lat": -57.83119821350664,
        "lon": 42.98979857130123,
        "alt_km": 736.9560257136873,
        "timestamp": "2025-12-23T05:02:12.426452+00:00",
        "meta_object_name": "COSMOS 2251 DEB",
        "meta_object_id": "1993-036ASE",
        "meta_epoch": "2025-12-17T23:28:57.859680",
        "meta_mean_motion": 14.50055355,
        "meta_eccentricity": 0.00415956,
        "meta_inclination": 74.0403,
        "meta_ra_of_asc_node": 79.8718,
        "meta_arg_of_pericenter": 209.9484,
        "meta_mean_anomaly": 149.9297,
        "meta_ephemeris_type": 0,
        "meta_classification_type": "U",
        "meta_norad_cat_id": 35784,
        "meta_element_set_no": 999,
        "meta_rev_at_epoch": 65782,
        "meta_bstar": 0.00024795111,
        "meta_mean_motion_dot": 9.44e-06,
        "meta_mean_motion_ddot": 0,
        "tle_line1": "1 35784U 93036ASE 25351.97844745  .00000944  00000+0  24795-3 0  9998",
        "tle_line2": "2 35784  74.0403  79.8718 0041595 209.9484 149.9297 14.50055355657829"
      },
      "geometry": {
        "type": "Point",
        "coordinates": [
          42.98979857130123,
          -57.83119821350664
        ]
      }
    },
    {
      "type": "Feature",
      "properties": {
        "norad_id": 35786,
        "name": "COSMOS 2251 DEB",
        "group": "cosmos-2251-debris",
        "lat": 66.75408516123508,
        "lon": 161.69566761413117,
        "alt_km": 648.9703568775258,
        "timestamp": "2025-12-23T05:02:12.426462+00:00",
        "meta_object_name": "COSMOS 2251 DEB",
        "meta_object_id": "1993-036ASG",
        "meta_epoch": "2025-12-21T19:48:04.443552",
        "meta_mean_motion": 14.66307498,
        "meta_eccentricity": 0.00333198,
        "meta_inclination": 74.0136,
        "meta_ra_of_asc_node": 26.2337,
        "meta_arg_of_pericenter": 153.7976,
        "meta_mean_anomaly": 206.4889,
        "meta_ephemeris_type": 0,
        "meta_classification_type": "U",
        "meta_norad_cat_id": 35786,
        "meta_element_set_no": 999,
        "meta_rev_at_epoch": 73541,
        "meta_bstar": 0.0006728661,
        "meta_mean_motion_dot": 3.713e-05,
        "meta_mean_motion_ddot": 0,
        "tle_line1": "1 35786U 93036ASG 25355.82505143  .00003713  00000+0  67287-3 0  9994",
        "tle_line2": "2 35786  74.0136  26.2337 0033319 153.7976 206.4889 14.66307498735417"
      },
      "geometry": {
        "type": "Point",
        "coordinates": [
          161.69566761413117,
          66.75408516123508
        ]
      }
    },
    {
      "type": "Feature",
      "properties": {
        "norad_id": 35789,
        "name": "COSMOS 2251 DEB",
        "group": "cosmos-2251-debris",
        "lat": 71.10715341271025,
        "lon": 28.406396809131536,
        "alt_km": 769.2546510556622,
        "timestamp": "2025-12-23T05:02:12.426472+00:00",
        "meta_object_name": "COSMOS 2251 DEB",
        "meta_object_id": "1993-036ASK",
        "meta_epoch": "2025-12-20T11:22:01.638048",
        "meta_mean_motion": 14.35991601,
        "meta_eccentricity": 0.00476765,
        "meta_inclination": 74.0388,
        "meta_ra_of_asc_node": 270.1736,
        "meta_arg_of_pericenter": 7.6909,
        "meta_mean_anomaly": 352.4963,
        "meta_ephemeris_type": 0,
        "meta_classification_type": "U",
        "meta_norad_cat_id": 35789,
        "meta_element_set_no": 999,
        "meta_rev_at_epoch": 61338,
        "meta_bstar": 9.629757e-05,
        "meta_mean_motion_dot": 2.57e-06,
        "meta_mean_motion_ddot": 0,
        "tle_line1": "1 35789U 93036ASK 25354.47363007  .00000257  00000+0  96298-4 0  9993",
        "tle_line2": "2 35789  74.0388 270.1736 0047676   7.6909 352.4963 14.35991601613383"
      },
      "geometry": {
        "type": "Point",
        "coordinates": [
          28.406396809131536,
          71.10715341271025
        ]
      }
    },
    {
      "type": "Feature",
      "properties": {
        "norad_id": 35793,
        "name": "COSMOS 2251 DEB",
        "group": "cosmos-2251-debris",
        "lat": -34.118506321986175,
        "lon": 28.424929677990463,
        "alt_km": 639.2132266892422,
        "timestamp": "2025-12-23T05:02:12.426482+00:00",
        "meta_object_name": "COSMOS 2251 DEB",
        "meta_object_id": "1993-036ASP",
        "meta_epoch": "2025-12-22T19:59:17.179008",
        "meta_mean_motion": 14.78898886,
        "meta_eccentricity": 0.00021779,
        "meta_inclination": 74.0403,
        "meta_ra_of_asc_node": 40.3457,
        "meta_arg_of_pericenter": 77.0765,
        "meta_mean_anomaly": 40.8773,
        "meta_ephemeris_type": 0,
        "meta_classification_type": "U",
        "meta_norad_cat_id": 35793,
        "meta_element_set_no": 999,
        "meta_rev_at_epoch": 65946,
        "meta_bstar": 0.0016902624,
        "meta_mean_motion_dot": 0.0001245,
        "meta_mean_motion_ddot": 0,
        "tle_line1": "1 35793U 93036ASP 25356.83283772  .00012450  00000+0  16903-2 0  9991",
        "tle_line2": "2 35793  74.0403  40.3457 0002177  77.0765  40.8773 14.78898886659465"
      },
      "geometry": {
        "type": "Point",
        "coordinates": [
          28.424929677990463,
          -34.118506321986175
        ]
      }
    }
  ]
}